[{"OBJECT_NAME":"STARLINK-32133","OBJECT_ID":"2024-136E","EPOCH":"2026-03-09T21:38:05.379360","MEAN_MOTION":15.30195197,"ECCENTRICITY":0.00012385,"INCLINATION":53.1606,"RA_OF_ASC_NODE":74.9208,"ARG_OF_PERICENTER":86.9167,"MEAN_ANOMALY":273.1976,"EPHEMERIS_TYPE":0,"CLASSIFICATION_TYPE":"U","NORAD_CAT_ID":60333,"ELEMENT_SET_NO":999,"REV_AT_EPOCH":8969,"BSTAR":2.8447884e-5,"MEAN_MOTION_DOT":4.83e-6,"MEAN_MOTION_DDOT":0},{"OBJECT_NAME":"OBJECT H","OBJECT_ID":"2024-205H","EPOCH":"2026-03-09T23:10:36.271776","MEAN_MOTION":15.29110994,"ECCENTRICITY":0.00105089,"INCLINATION":97.4168,"RA_OF_ASC_NODE":147.1265,"ARG_OF_PERICENTER":38.7838,"MEAN_ANOMALY":321.4154,"EPHEMERIS_TYPE":0,"CLASSIFICATION_TYPE":"U","NORAD_CAT_ID":61901,"ELEMENT_SET_NO":999,"REV_AT_EPOCH":7354,"BSTAR":0.00059497566,"MEAN_MOTION_DOT":0.00016783,"MEAN_MOTION_DDOT":0}]
